*******************************************************************************
Ephemeris / WWW_USER Mon Jul 15 19:10:07 2024 Pasadena, USA      / Horizons    
*******************************************************************************
Target body name: (2018 RY7)                      {source: JPL#20}
Center body name: Earth (399)                     {source: DE441}
Center-site name: Gemini South Obs., Cerro Pachon
*******************************************************************************
Start time      : A.D. 2018-Dec-25 23:55:00.0000 UT      
Stop  time      : A.D. 2018-Dec-26 09:31:00.0000 UT      
Step-size       : 1 minutes
*******************************************************************************
Target pole/equ : undefined
Target radii    : undefined                                                    
Center geodetic : 289.2634, -30.2406227, 2.71233  {E-lon(deg),Lat(deg),Alt(km)}
Center cylindric: 289.2634,5517.21435,-3194.81213 {E-lon(deg),Dxy(km),Dz(km)}
Center pole/equ : ITRF93                          {East-longitude positive}
Center radii    : 6378.137, 6378.137, 6356.752 km {Equator_a, b, pole_c}       
Target primary  : Sun
Vis. interferer : MOON (R_eq= 1737.400) km        {source: DE441}
Rel. light bend : Sun                             {source: DE441}
Rel. lght bnd GM: 1.3271E+11 km^3/s^2                                          
Small-body perts: Yes                             {source: SB441-N16}
Atmos refraction: NO (AIRLESS)
RA format       : HMS
Time format     : CAL 
Calendar mode   : Mixed Julian/Gregorian
RTS-only print  : NO       
EOP file        : eop.240715.p241008                                           
EOP coverage    : DATA-BASED 1962-JAN-20 TO 2024-JUL-15. PREDICTS-> 2024-OCT-07
Units conversion: 1 au= 149597870.700 km, c= 299792.458 km/s, 1 day= 86400.0 s 
Table cut-offs 1: Elevation (-90.0deg=NO ),Airmass (>38.000=NO), Daylight (YES)
Table cut-offs 2: Solar elongation (  0.0,180.0=NO ),Local Hour Angle( 0.0=NO )
Table cut-offs 3: RA/DEC angular rate (     0.0=NO )                           
*******************************************************************************
Initial IAU76/J2000 heliocentric ecliptic osculating elements (au, days, deg.):
  EPOCH=  2458422.5 ! 2018-Oct-31.00 (TDB)         Residual RMS= .22459        
   EC= .1470549687381346   QR= .8667733479166969   TP= 2458516.8896767548      
   OM= 2.838668085760325   W=  136.9006026425241   IN= 13.35135890147074       
  Equivalent ICRF heliocentric cartesian coordinates (au, au/d):
   X= 8.791791513870114E-01  Y= 4.508422091141234E-01  Z= 3.244113040133835E-01
  VX=-1.085418916943652E-02 VY= 1.006005810562689E-02 VZ= 7.673980932675997E-03
Asteroid physical parameters (km, seconds, rotational period in hours):        
   GM= n.a.                RAD= n.a.               ROTPER= n.a.                
   H= 24.4                 G= .150                 B-V= n.a.                   
                           ALBEDO= n.a.            STYP= n.a.                  
*******************************************************************************
 Date__(UT)__HR:MN     R.A._________(ICRF)_________DEC
******************************************************
$$SOE
 2018-Dec-26 04:01  m  19 05 27.217638 +39 54 36.56230
 2018-Dec-26 04:02  m  19 05 27.144186 +39 54 36.07725
 2018-Dec-26 04:03  m  19 05 27.070753 +39 54 35.59252
 2018-Dec-26 04:04  m  19 05 26.997339 +39 54 35.10812
 2018-Dec-26 04:05  m  19 05 26.923945 +39 54 34.62405
 2018-Dec-26 04:06  m  19 05 26.850570 +39 54 34.14031
 2018-Dec-26 04:07  m  19 05 26.777215 +39 54 33.65690
 2018-Dec-26 04:08  m  19 05 26.703878 +39 54 33.17383
 2018-Dec-26 04:09  m  19 05 26.630559 +39 54 32.69109
 2018-Dec-26 04:10  m  19 05 26.557259 +39 54 32.20868
 2018-Dec-26 04:11  m  19 05 26.483977 +39 54 31.72661
 2018-Dec-26 04:12  m  19 05 26.410713 +39 54 31.24487
 2018-Dec-26 04:13  m  19 05 26.337467 +39 54 30.76347
 2018-Dec-26 04:14  m  19 05 26.264238 +39 54 30.28240
 2018-Dec-26 04:15  m  19 05 26.191026 +39 54 29.80167
 2018-Dec-26 04:16  m  19 05 26.117832 +39 54 29.32127
 2018-Dec-26 04:17  m  19 05 26.044654 +39 54 28.84122
 2018-Dec-26 04:18  m  19 05 25.971492 +39 54 28.36150
 2018-Dec-26 04:19  m  19 05 25.898347 +39 54 27.88212
 2018-Dec-26 04:20  m  19 05 25.825219 +39 54 27.40308
 2018-Dec-26 04:21  m  19 05 25.752106 +39 54 26.92437
 2018-Dec-26 04:22  m  19 05 25.679008 +39 54 26.44601
 2018-Dec-26 04:23  m  19 05 25.605927 +39 54 25.96799
 2018-Dec-26 04:24  m  19 05 25.532860 +39 54 25.49031
 2018-Dec-26 04:25  m  19 05 25.459808 +39 54 25.01298
 2018-Dec-26 04:26  m  19 05 25.386772 +39 54 24.53598
 2018-Dec-26 04:27  m  19 05 25.313749 +39 54 24.05933
 2018-Dec-26 04:28  m  19 05 25.240741 +39 54 23.58302
 2018-Dec-26 04:29  m  19 05 25.167748 +39 54 23.10706
 2018-Dec-26 04:30  m  19 05 25.094768 +39 54 22.63143
 2018-Dec-26 04:31  m  19 05 25.021802 +39 54 22.15616
 2018-Dec-26 04:32  m  19 05 24.948849 +39 54 21.68123
 2018-Dec-26 04:33  m  19 05 24.875909 +39 54 21.20664
 2018-Dec-26 04:34  m  19 05 24.802982 +39 54 20.73240
 2018-Dec-26 04:35  m  19 05 24.730069 +39 54 20.25851
 2018-Dec-26 04:36  m  19 05 24.657167 +39 54 19.78496
 2018-Dec-26 04:37  m  19 05 24.584278 +39 54 19.31176
 2018-Dec-26 04:38  m  19 05 24.511401 +39 54 18.83891
 2018-Dec-26 04:39  m  19 05 24.438536 +39 54 18.36640
 2018-Dec-26 04:40  m  19 05 24.365682 +39 54 17.89425
 2018-Dec-26 04:41  m  19 05 24.292840 +39 54 17.42244
 2018-Dec-26 04:42  m  19 05 24.220009 +39 54 16.95098
 2018-Dec-26 04:43  m  19 05 24.147189 +39 54 16.47988
 2018-Dec-26 04:44  m  19 05 24.074380 +39 54 16.00912
 2018-Dec-26 04:45  m  19 05 24.001581 +39 54 15.53871
 2018-Dec-26 04:46  m  19 05 23.928792 +39 54 15.06865
 2018-Dec-26 04:47  m  19 05 23.856014 +39 54 14.59895
 2018-Dec-26 04:48  m  19 05 23.783245 +39 54 14.12959
 2018-Dec-26 04:49  m  19 05 23.710485 +39 54 13.66059
 2018-Dec-26 04:50  m  19 05 23.637735 +39 54 13.19193
 2018-Dec-26 04:51  m  19 05 23.564994 +39 54 12.72363
 2018-Dec-26 04:52  m  19 05 23.492262 +39 54 12.25569
 2018-Dec-26 04:53  m  19 05 23.419539 +39 54 11.78809
 2018-Dec-26 04:54  m  19 05 23.346824 +39 54 11.32085
 2018-Dec-26 04:55  m  19 05 23.274117 +39 54 10.85396
 2018-Dec-26 04:56  m  19 05 23.201418 +39 54 10.38743
 2018-Dec-26 04:57  m  19 05 23.128727 +39 54 09.92125
 2018-Dec-26 04:58  m  19 05 23.056043 +39 54 09.45542
 2018-Dec-26 04:59  m  19 05 22.983366 +39 54 08.98995
 2018-Dec-26 05:00  m  19 05 22.910697 +39 54 08.52484
 2018-Dec-26 05:01  m  19 05 22.838034 +39 54 08.06007
 2018-Dec-26 05:02  m  19 05 22.765378 +39 54 07.59567
 2018-Dec-26 05:03  m  19 05 22.692728 +39 54 07.13161
 2018-Dec-26 05:04  m  19 05 22.620084 +39 54 06.66792
 2018-Dec-26 05:05  m  19 05 22.547446 +39 54 06.20458
 2018-Dec-26 05:06  m  19 05 22.474814 +39 54 05.74159
 2018-Dec-26 05:07  m  19 05 22.402187 +39 54 05.27897
 2018-Dec-26 05:08  m  19 05 22.329565 +39 54 04.81669
 2018-Dec-26 05:09  m  19 05 22.256948 +39 54 04.35478
 2018-Dec-26 05:10  m  19 05 22.184336 +39 54 03.89322
 2018-Dec-26 05:11  m  19 05 22.111728 +39 54 03.43202
 2018-Dec-26 05:12  m  19 05 22.039125 +39 54 02.97117
 2018-Dec-26 05:13  m  19 05 21.966525 +39 54 02.51068
 2018-Dec-26 05:14  m  19 05 21.893929 +39 54 02.05055
 2018-Dec-26 05:15  m  19 05 21.821337 +39 54 01.59078
 2018-Dec-26 05:16  m  19 05 21.748748 +39 54 01.13137
 2018-Dec-26 05:17  m  19 05 21.676162 +39 54 00.67231
 2018-Dec-26 05:18  m  19 05 21.603579 +39 54 00.21361
 2018-Dec-26 05:19  m  19 05 21.530998 +39 53 59.75527
 2018-Dec-26 05:20  m  19 05 21.458420 +39 53 59.29728
 2018-Dec-26 05:21  m  19 05 21.385844 +39 53 58.83965
 2018-Dec-26 05:22  m  19 05 21.313270 +39 53 58.38239
 2018-Dec-26 05:23  m  19 05 21.240697 +39 53 57.92548
 2018-Dec-26 05:24  m  19 05 21.168126 +39 53 57.46892
 2018-Dec-26 05:25  m  19 05 21.095556 +39 53 57.01273
 2018-Dec-26 05:26  m  19 05 21.022987 +39 53 56.55689
 2018-Dec-26 05:27  m  19 05 20.950419 +39 53 56.10142
 2018-Dec-26 05:28  m  19 05 20.877851 +39 53 55.64630
 2018-Dec-26 05:29  m  19 05 20.805283 +39 53 55.19154
 2018-Dec-26 05:30  m  19 05 20.732716 +39 53 54.73714
 2018-Dec-26 05:31  m  19 05 20.660148 +39 53 54.28309
 2018-Dec-26 05:32  m  19 05 20.587579 +39 53 53.82941
 2018-Dec-26 05:33  m  19 05 20.515010 +39 53 53.37608
 2018-Dec-26 05:34  m  19 05 20.442441 +39 53 52.92311
 2018-Dec-26 05:35  m  19 05 20.369869 +39 53 52.47050
 2018-Dec-26 05:36  m  19 05 20.297297 +39 53 52.01825
 2018-Dec-26 05:37  m  19 05 20.224723 +39 53 51.56636
 2018-Dec-26 05:38  m  19 05 20.152147 +39 53 51.11483
 2018-Dec-26 05:39  m  19 05 20.079569 +39 53 50.66365
 2018-Dec-26 05:40  m  19 05 20.006988 +39 53 50.21283
 2018-Dec-26 05:41  m  19 05 19.934405 +39 53 49.76237
 2018-Dec-26 05:42  m  19 05 19.861820 +39 53 49.31227
 2018-Dec-26 05:43  m  19 05 19.789231 +39 53 48.86252
 2018-Dec-26 05:44  m  19 05 19.716639 +39 53 48.41314
 2018-Dec-26 05:45  m  19 05 19.644043 +39 53 47.96411
 2018-Dec-26 05:46  m  19 05 19.571444 +39 53 47.51544
 2018-Dec-26 05:47  m  19 05 19.498841 +39 53 47.06712
 2018-Dec-26 05:48  m  19 05 19.426233 +39 53 46.61917
 2018-Dec-26 05:49  m  19 05 19.353621 +39 53 46.17157
 2018-Dec-26 05:50  m  19 05 19.281005 +39 53 45.72433
 2018-Dec-26 05:51  m  19 05 19.208383 +39 53 45.27744
 2018-Dec-26 05:52  m  19 05 19.135757 +39 53 44.83092
 2018-Dec-26 05:53  m  19 05 19.063125 +39 53 44.38475
 2018-Dec-26 05:54  m  19 05 18.990487 +39 53 43.93893
 2018-Dec-26 05:55  m  19 05 18.917844 +39 53 43.49347
 2018-Dec-26 05:56  m  19 05 18.845194 +39 53 43.04837
 2018-Dec-26 05:57  m  19 05 18.772538 +39 53 42.60363
 2018-Dec-26 05:58  m  19 05 18.699876 +39 53 42.15924
 2018-Dec-26 05:59  m  19 05 18.627207 +39 53 41.71520
 2018-Dec-26 06:00  m  19 05 18.554531 +39 53 41.27152
 2018-Dec-26 06:01  m  19 05 18.481848 +39 53 40.82820
 2018-Dec-26 06:02  m  19 05 18.409157 +39 53 40.38523
 2018-Dec-26 06:03  m  19 05 18.336458 +39 53 39.94262
